[{"Kenmerk":80305396,"Actie":"Lossen","Klantnr":"0000011637","Naam":"Don Morris Palvelut Oy","Land":"FIN","Straat":"Klaneettitie 12","Postcode":420,"Plaats":"HELSINKI","Gewicht":1056,"Euro DV":2,"Blok DV":null},{"Kenmerk":80305560,"Actie":"Lossen","Klantnr":"0000020523","Naam":"Aminah OY","Land":"FIN","Straat":"Luutnantintie 5","Postcode":410,"Plaats":"HELSINKI","Gewicht":746,"Euro DV":1,"Blok DV":null},{"Kenmerk":80305398,"Actie":"Lossen","Klantnr":"D8815","Naam":"Jaihe Oy","Land":"FIN","Straat":"Putkitie 6","Postcode":880,"Plaats":"HELSINKI","Gewicht":486,"Euro DV":1,"Blok DV":null},{"Kenmerk":80305515,"Actie":"Lossen","Klantnr":"0000021030","Naam":"Aurit Elintarvike","Land":"FIN","Straat":"Hameentie 5b","Postcode":530,"Plaats":"HELSINKI","Gewicht":795,"Euro DV":1,"Blok DV":null},{"Kenmerk":80305537,"Actie":"Lossen","Klantnr":"0000013141","Naam":"DPY Trading Oy","Land":"FIN","Straat":"Komeetankatu 1","Postcode":2210,"Plaats":"ESPOO","Gewicht":760,"Euro DV":1,"Blok DV":null},{"Kenmerk":80305424,"Actie":"Lossen","Klantnr":"A16506","Naam":"Xiao Hua Oy","Land":"FIN","Straat":"Paalukyl\u00e4npolku 9","Postcode":1600,"Plaats":"VANTAA","Gewicht":654,"Euro DV":1,"Blok DV":null},{"Kenmerk":80305559,"Actie":"Lossen","Klantnr":"B21812","Naam":"Atusa Cash & Curry Oy","Land":"FIN","Straat":"JOKELANKATU 5","Postcode":5800,"Plaats":"HYVINKAA","Gewicht":546,"Euro DV":1,"Blok DV":null},{"Kenmerk":80305258,"Actie":"Lossen","Klantnr":"A9354","Naam":"Bai Wei Asian Shop","Land":"FIN","Straat":"Kylm\u00e4suonkatu 1","Postcode":33720,"Plaats":"TAMPERE","Gewicht":926,"Euro DV":1,"Blok DV":null},{"Kenmerk":80305399,"Actie":"Lossen","Klantnr":"A8613","Naam":"HST Asian Market","Land":"FIN","Straat":"N\u00e4rpesv\u00e4gen 9","Postcode":64200,"Plaats":"N\u00c4RPES","Gewicht":856,"Euro DV":1,"Blok DV":null},{"Kenmerk":80305583,"Actie":"Lossen","Klantnr":"A4439","Naam":"Synergy Scandic Oy","Land":"FIN","Straat":"\u00d6stman Trading Oy Isokalliontie 3","Postcode":67600,"Plaats":"KOKKOLA","Gewicht":623,"Euro DV":1,"Blok DV":null},{"Kenmerk":80305214,"Actie":"Lossen","Klantnr":"A6349","Naam":"Aasia Market Oy","Land":"FIN","Straat":"Asemakatu 32","Postcode":90100,"Plaats":"OULU","Gewicht":668,"Euro DV":1,"Blok DV":null}]